#cP2019  1 10 10  0  0.00000000      96 ORBIT IGb14 HLM  IGS
## 2035      0.00000000     1.00000000 58493 0.4166666665114
+    8    D3704D3903D4003D4103D5627D5727D5826D5926    0    0
+             0    0    0    0    0    0    0    0    0    0
+             0    0    0    0    0    0    0    0    0    0
+             0    0    0    0    0    0    0    0    0    0
+             0    0    0    0    0    0    0    0    0    0
++            2    2    2    2    2    2    2    2    0    0
++            0    0    0    0    0    0    0    0    0    0
++            0    0    0    0    0    0    0    0    0    0
++            0    0    0    0    0    0    0    0    0    0
++            0    0    0    0    0    0    0    0    0    0
%c G  cc GPS ccc cccc cccc cccc cccc ccccc ccccc ccccc ccccc
%c cc cc ccc ccc cccc cccc cccc cccc ccccc ccccc ccccc ccccc
%f  1.2500000  1.025000000  0.00000000000  0.000000000000000
%f  0.0000000  0.000000000  0.00000000000  0.000000000000000
%i    0    0    0    0      0      0      0      0         0
%i    0    0    0    0      0      0      0      0         0
/* RAPID ORBIT COMBINATION FROM WEIGHTED AVERAGE OF:        
/* cod emr esa gfz jpl ngs sio usn whu                      
/* REFERENCED TO IGS TIME (IGST) AND TO WEIGHTED MEAN POLE: 
/* PCV:IGS14_2118 OL/AL:FES2004  NONE     Y  ORB:CMB CLK:CMB
*  2019  1 10  9 57 48.00000000
PD3704  -3348.993738   5476.799399   2508.558261    -75.338991  8  8  8 100
PD3903  -3436.483914   4861.546122   3471.273887    -22.140691  8  8  8 100
PD4003  -3944.362416   4471.856528   3455.213662     33.663158  8  8  8 100
PD4103  -4408.181971   4029.316651   3439.002413     82.668741  8  8  8 100
PD5627  -2967.572292   3034.054432   5420.358836     41.755092  8  8  8 100
PD5727  -3278.307118   2685.356724   5425.324009     80.193946  8  8  8 100
PD5826  -3085.883792   3594.722788   4992.976759    -23.501685  8  8  8 100
PD5926  -3452.360794   3231.073375   5001.618726    -80.704879  8  8  8 100
*  2019  1 10  9 57 49.00000000
PD3704  -3353.719573   5476.466557   2502.974366    -75.338337  8  8  8 100
PD3903  -3441.898666   4861.231442   3466.355648    -22.141223  8  8  8 100
PD4003  -3949.698855   4470.961964   3450.281026     33.662997  8  8  8 100
PD4103  -4413.378266   4027.855223   3434.055447     82.669208  8  8  8 100
PD5627  -2970.859870   3027.744703   5422.095144     41.755895  8  8  8 100
PD5727  -3280.906438   2678.728178   5427.038593     80.194708  8  8  8 100
PD5826  -3088.440653   3588.500836   4995.879935    -23.502013  8  8  8 100
PD5926  -3454.242071   3224.606181   5004.501931    -80.704389  8  8  8 100
*  2019  1 10  9 57 50.00000000
PD3704  -3358.441393   5476.127765   2497.387424    -75.337683  8  8  8 100
PD3903  -3447.309292   4860.911657   3461.433187    -22.141755  8  8  8 100
PD4003  -3955.030637   4470.062756   3445.344188     33.662836  8  8  8 100
PD4103  -4418.569423   4026.389669   3429.104300     82.669675  8  8  8 100
PD5627  -2974.144754   3021.431769   5423.824828     41.756697  8  8  8 100
PD5727  -3283.502733   2672.096752   5428.746546     80.195470  8  8  8 100
PD5826  -3090.994662   3582.274890   4998.777005    -23.502342  8  8  8 100
PD5926  -3456.120087   3218.135336   5007.379020    -80.703899  8  8  8 100
*  2019  1 10  9 57 51.00000000
PD3704  -3363.159192   5475.783025   2491.797442    -75.337029  8  8  8 100
PD3903  -3452.715785   4860.586767   3456.506511    -22.142287  8  8  8 100
PD4003  -3960.357755   4469.158906   3440.403154     33.662674  8  8  8 100
PD4103  -4423.755437   4024.919990   3424.148976     82.670142  8  8  8 100
PD5627  -2977.426942   3015.115640   5425.547885     41.757500  8  8  8 100
PD5727  -3286.096001   2665.462455   5430.447866     80.196231  8  8  8 100
PD5826  -3093.545818   3576.044956   5001.667964    -23.502670  8  8  8 100
PD5926  -3457.994841   3211.660848   5010.249987    -80.703409  8  8  8 100
*  2019  1 10  9 57 52.00000000
PD3704  -3367.872965   5475.432335   2486.204426    -75.336375  8  8  8 100
PD3903  -3458.118139   4860.256772   3451.575625    -22.142819  8  8  8 100
PD4003  -3965.680202   4468.250414   3435.457931     33.662513  8  8  8 100
PD4103  -4428.936302   4023.446187   3419.189483     82.670608  8  8  8 100
PD5627  -2980.706429   3008.796321   5427.264314     41.758303  8  8  8 100
PD5727  -3288.686241   2658.825293   5432.142552     80.196993  8  8  8 100
PD5826  -3096.094118   3569.811042   5004.552809    -23.502999  8  8  8 100
PD5926  -3459.866331   3205.182725   5013.114830    -80.702919  8  8  8 100
*  2019  1 10  9 57 53.00000000
PD3704  -3372.582707   5475.075695   2480.608383    -75.335720  8  8  8 100
PD3903  -3463.516349   4859.921671   3446.640537    -22.143351  8  8  8 100
PD4003  -3970.997975   4467.337280   3430.508524     33.662352  8  8  8 100
PD4103  -4434.112012   4021.968261   3414.225826     82.671075  8  8  8 100
PD5627  -2983.983213   3002.473820   5428.974112     41.759106  8  8  8 100
PD5727  -3291.273448   2652.185275   5433.830602     80.197755  8  8  8 100
PD5826  -3098.639559   3563.573154   5007.431536    -23.503328  8  8  8 100
PD5926  -3461.734555   3198.700973   5015.973545    -80.702429  8  8  8 100
*  2019  1 10  9 57 54.00000000
PD3704  -3377.288414   5474.713106   2475.009320    -75.335066  8  8  8 100
PD3903  -3468.910408   4859.581465   3441.701250    -22.143884  8  8  8 100
PD4003  -3976.311066   4466.419505   3425.554939     33.662190  8  8  8 100
PD4103  -4439.282561   4020.486212   3409.258011     82.671542  8  8  8 100
PD5627  -2987.257289   2996.148145   5430.677277     41.759909  8  8  8 100
PD5727  -3293.857620   2645.542408   5435.512013     80.198517  8  8  8 100
PD5826  -3101.182139   3557.331300   5010.304143    -23.503656  8  8  8 100
PD5926  -3463.599511   3192.215601   5018.826128    -80.701939  8  8  8 100
*  2019  1 10  9 57 55.00000000
PD3704  -3381.990081   5474.344567   2469.407244    -75.334412  8  8  8 100
PD3903  -3474.300312   4859.236153   3436.757773    -22.144416  8  8  8 100
PD4003  -3981.619470   4465.497089   3420.597183     33.662029  8  8  8 100
PD4103  -4444.447945   4019.000043   3404.286044     82.672009  8  8  8 100
PD5627  -2990.528654   2989.819303   5432.373808     41.760711  8  8  8 100
PD5727  -3296.438754   2638.896699   5437.186784     80.199279  8  8  8 100
PD5826  -3103.721855   3551.085487   5013.170624    -23.503985  8  8  8 100
PD5926  -3465.461198   3185.726615   5021.672577    -80.701449  8  8  8 100
*  2019  1 10  9 57 56.00000000
PD3704  -3386.687702   5473.970078   2463.802162    -75.333758  8  8  8 100
PD3903  -3479.686053   4858.885735   3431.810110    -22.144948  8  8  8 100
PD4003  -3986.923182   4464.570032   3415.635261     33.661868  8  8  8 100
PD4103  -4449.608157   4017.509754   3399.309932     82.672475  8  8  8 100
PD5627  -2993.797304   2983.487301   5434.063702     41.761514  8  8  8 100
PD5727  -3299.016849   2632.248157   5438.854912     80.200041  8  8  8 100
PD5826  -3106.258704   3544.835723   5016.030978    -23.504313  8  8  8 100
PD5926  -3467.319614   3179.234023   5024.512887    -80.700959  8  8  8 100
*  2019  1 10  9 57 57.00000000
PD3704  -3391.381274   5473.589638   2458.194080    -75.333104  8  8  8 100
PD3903  -3485.067627   4858.530211   3426.858268    -22.145480  8  8  8 100
PD4003  -3992.222194   4463.638335   3410.669180     33.661707  8  8  8 100
PD4103  -4454.763191   4016.015345   3394.329680     82.672942  8  8  8 100
PD5627  -2997.063237   2977.152146   5435.746957     41.762317  8  8  8 100
PD5727  -3301.591900   2625.596789   5440.516395     80.200803  8  8  8 100
PD5826  -3108.792685   3538.582014   5018.885200    -23.504642  8  8  8 100
PD5926  -3469.174757   3172.737833   5027.347055    -80.700469  8  8  8 100
*  2019  1 10  9 57 58.00000000
PD3704  -3396.070790   5473.203249   2452.583006    -75.332449  8  8  8 100
PD3903  -3490.445028   4858.169580   3421.902253    -22.146012  8  8  8 100
PD4003  -3997.516503   4462.701999   3405.698945     33.661545  8  8  8 100
PD4103  -4459.913043   4014.516819   3389.345294     82.673409  8  8  8 100
PD5627  -3000.326449   2970.813846   5437.423571     41.763120  8  8  8 100
PD5727  -3304.163906   2618.942602   5442.171232     80.201565  8  8  8 100
PD5826  -3111.323795   3532.324367   5021.733287    -23.504970  8  8  8 100
PD5926  -3471.026626   3166.238052   5030.175078    -80.699979  8  8  8 100
*  2019  1 10  9 57 59.00000000
PD3704  -3400.756248   5472.810909   2446.968946    -75.331795  8  8  8 100
PD3903  -3495.818250   4857.803843   3416.942070    -22.146544  8  8  8 100
PD4003  -4002.806102   4461.761024   3400.724563     33.661384  8  8  8 100
PD4103  -4465.057705   4013.014177   3384.356781     82.673876  8  8  8 100
PD5627  -3003.586935   2964.472408   5439.093543     41.763922  8  8  8 100
PD5727  -3306.732863   2612.285605   5443.819420     80.202326  8  8  8 100
PD5826  -3113.852030   3526.062790   5024.575236    -23.505299  8  8  8 100
PD5926  -3472.875218   3159.734686   5032.996952    -80.699489  8  8  8 100
*  2019  1 10  9 58  0.00000000
PD3704  -3405.437640   5472.412618   2441.351907    -75.331141  8  8  8 100
PD3903  -3501.187287   4857.433000   3411.977727    -22.147076  8  8  8 100
PD4003  -4008.090985   4460.815410   3395.746039     33.661223  8  8  8 100
PD4103  -4470.197174   4011.507418   3379.364147     82.674343  8  8  8 100
PD5627  -3006.844693   2958.127840   5440.756869     41.764725  8  8  8 100
PD5727  -3309.298769   2605.625804   5445.460958     80.203088  8  8  8 100
PD5826  -3116.377390   3519.797291   5027.411042    -23.505627  8  8  8 100
PD5926  -3474.720533   3153.227745   5035.812674    -80.698999  8  8  8 100
EOF
